CCSDS_OMM_VERS = 2.0
CREATION_DATE  = 
ORIGINATOR     = 

OBJECT_NAME    = YOTSUBA-KULOVER
OBJECT_ID      = 1998-067XN
CENTER_NAME    = EARTH
REF_FRAME      = TEME
TIME_SYSTEM    = UTC
MEAN_ELEMENT_THEORY = SGP/SGP4

EPOCH          = 2026-03-04T07:51:03.524832
MEAN_MOTION    = 15.78107560
ECCENTRICITY   = .0006069
INCLINATION    = 51.6210
RA_OF_ASC_NODE = 85.0577
ARG_OF_PERICENTER = 34.8104
MEAN_ANOMALY   = 325.3292

EPHEMERIS_TYPE = 0
CLASSIFICATION_TYPE = U
NORAD_CAT_ID   = 65941
ELEMENT_SET_NO = 999
REV_AT_EPOCH   = 2265
BSTAR          = .13143E-2
MEAN_MOTION_DOT = .235069E-2
MEAN_MOTION_DDOT = 0

CCSDS_OMM_VERS = 2.0
CREATION_DATE  = 
ORIGINATOR     = 

OBJECT_NAME    = BOTAN
OBJECT_ID      = 1998-067XP
CENTER_NAME    = EARTH
REF_FRAME      = TEME
TIME_SYSTEM    = UTC
MEAN_ELEMENT_THEORY = SGP/SGP4

EPOCH          = 2026-03-03T07:18:10.975680
MEAN_MOTION    = 16.26065139
ECCENTRICITY   = .00029265
INCLINATION    = 51.6040
RA_OF_ASC_NODE = 82.5602
ARG_OF_PERICENTER = 46.9281
MEAN_ANOMALY   = 313.1984

EPHEMERIS_TYPE = 0
CLASSIFICATION_TYPE = U
NORAD_CAT_ID   = 65942
ELEMENT_SET_NO = 999
REV_AT_EPOCH   = 2259
BSTAR          = .14502781E-2
MEAN_MOTION_DOT = .4760636E-1
MEAN_MOTION_DDOT = .12040774E-4

CCSDS_OMM_VERS = 2.0
CREATION_DATE  = 
ORIGINATOR     = 

OBJECT_NAME    = E-KAGAKU-1
OBJECT_ID      = 1998-067XQ
CENTER_NAME    = EARTH
REF_FRAME      = TEME
TIME_SYSTEM    = UTC
MEAN_ELEMENT_THEORY = SGP/SGP4

EPOCH          = 2026-03-04T07:55:57.406656
MEAN_MOTION    = 15.77837895
ECCENTRICITY   = .0006198
INCLINATION    = 51.6236
RA_OF_ASC_NODE = 85.0969
ARG_OF_PERICENTER = 41.7639
MEAN_ANOMALY   = 318.3833

EPHEMERIS_TYPE = 0
CLASSIFICATION_TYPE = U
NORAD_CAT_ID   = 65943
ELEMENT_SET_NO = 999
REV_AT_EPOCH   = 2265
BSTAR          = .1296E-2
MEAN_MOTION_DOT = .22885E-2
MEAN_MOTION_DDOT = 0

CCSDS_OMM_VERS = 2.0
CREATION_DATE  = 
ORIGINATOR     = 

OBJECT_NAME    = HRC MONOBLOCK CAMERA
OBJECT_ID      = 1998-067XR
CENTER_NAME    = EARTH
REF_FRAME      = TEME
TIME_SYSTEM    = UTC
MEAN_ELEMENT_THEORY = SGP/SGP4

EPOCH          = 2026-03-04T07:49:05.205216
MEAN_MOTION    = 15.61539158
ECCENTRICITY   = .0003417
INCLINATION    = 51.6270
RA_OF_ASC_NODE = 92.5913
ARG_OF_PERICENTER = 67.9159
MEAN_ANOMALY   = 292.2198

EPHEMERIS_TYPE = 0
CLASSIFICATION_TYPE = U
NORAD_CAT_ID   = 66052
ELEMENT_SET_NO = 999
REV_AT_EPOCH   = 2155
BSTAR          = .7771E-3
MEAN_MOTION_DOT = .68021E-3
MEAN_MOTION_DDOT = 0

CCSDS_OMM_VERS = 2.0
CREATION_DATE  = 
ORIGINATOR     = 

OBJECT_NAME    = HTV-X1
OBJECT_ID      = 2025-241A
CENTER_NAME    = EARTH
REF_FRAME      = TEME
TIME_SYSTEM    = UTC
MEAN_ELEMENT_THEORY = SGP/SGP4

EPOCH          = 2026-03-04T09:57:31.642848
MEAN_MOTION    = 15.48440114
ECCENTRICITY   = .0008199
INCLINATION    = 51.6315
RA_OF_ASC_NODE = 98.4344
ARG_OF_PERICENTER = 155.9283
MEAN_ANOMALY   = 204.2090

EPHEMERIS_TYPE = 0
CLASSIFICATION_TYPE = U
NORAD_CAT_ID   = 66174
ELEMENT_SET_NO = 999
REV_AT_EPOCH   = 55543
BSTAR          = .19994E-3
MEAN_MOTION_DOT = .10377E-3
MEAN_MOTION_DDOT = 0

CCSDS_OMM_VERS = 2.0
CREATION_DATE  = 
ORIGINATOR     = 

OBJECT_NAME    = SZ-21 MODULE
OBJECT_ID      = 2025-246C
CENTER_NAME    = EARTH
REF_FRAME      = TEME
TIME_SYSTEM    = UTC
MEAN_ELEMENT_THEORY = SGP/SGP4

EPOCH          = 2026-03-03T18:27:35.995968
MEAN_MOTION    = 15.68011820
ECCENTRICITY   = .00014472
INCLINATION    = 41.4730
RA_OF_ASC_NODE = 239.7930
ARG_OF_PERICENTER = 287.9355
MEAN_ANOMALY   = 72.1329

EPHEMERIS_TYPE = 0
CLASSIFICATION_TYPE = U
NORAD_CAT_ID   = 66515
ELEMENT_SET_NO = 999
REV_AT_EPOCH   = 1714
BSTAR          = .39281321E-3
MEAN_MOTION_DOT = .44751E-3
MEAN_MOTION_DDOT = 0

CCSDS_OMM_VERS = 2.0
CREATION_DATE  = 
ORIGINATOR     = 

OBJECT_NAME    = SHENZHOU-22
OBJECT_ID      = 2025-272A
CENTER_NAME    = EARTH
REF_FRAME      = TEME
TIME_SYSTEM    = UTC
MEAN_ELEMENT_THEORY = SGP/SGP4

EPOCH          = 2026-03-04T12:45:43.652736
MEAN_MOTION    = 15.60393731
ECCENTRICITY   = .000688
INCLINATION    = 41.4656
RA_OF_ASC_NODE = 239.5395
ARG_OF_PERICENTER = 242.0703
MEAN_ANOMALY   = 117.9439

EPHEMERIS_TYPE = 0
CLASSIFICATION_TYPE = U
NORAD_CAT_ID   = 66645
ELEMENT_SET_NO = 999
REV_AT_EPOCH   = 26835
BSTAR          = .29808E-3
MEAN_MOTION_DOT = .24935E-3
MEAN_MOTION_DDOT = 0

CCSDS_OMM_VERS = 2.0
CREATION_DATE  = 
ORIGINATOR     = 

OBJECT_NAME    = SOYUZ-MS 28
OBJECT_ID      = 2025-275A
CENTER_NAME    = EARTH
REF_FRAME      = TEME
TIME_SYSTEM    = UTC
MEAN_ELEMENT_THEORY = SGP/SGP4

EPOCH          = 2026-03-04T09:57:31.642848
MEAN_MOTION    = 15.48440114
ECCENTRICITY   = .0008199
INCLINATION    = 51.6315
RA_OF_ASC_NODE = 98.4344
ARG_OF_PERICENTER = 155.9283
MEAN_ANOMALY   = 204.2090

EPHEMERIS_TYPE = 0
CLASSIFICATION_TYPE = U
NORAD_CAT_ID   = 66664
ELEMENT_SET_NO = 999
REV_AT_EPOCH   = 55551
BSTAR          = .19994E-3
MEAN_MOTION_DOT = .10377E-3
MEAN_MOTION_DDOT = 0

CCSDS_OMM_VERS = 2.0
CREATION_DATE  = 
ORIGINATOR     = 

OBJECT_NAME    = DUPLEX
OBJECT_ID      = 1998-067XS
CENTER_NAME    = EARTH
REF_FRAME      = TEME
TIME_SYSTEM    = UTC
MEAN_ELEMENT_THEORY = SGP/SGP4

EPOCH          = 2026-03-04T09:12:56.728224
MEAN_MOTION    = 15.55826494
ECCENTRICITY   = .0002075
INCLINATION    = 51.6284
RA_OF_ASC_NODE = 95.9816
ARG_OF_PERICENTER = 91.8511
MEAN_ANOMALY   = 268.2718

EPHEMERIS_TYPE = 0
CLASSIFICATION_TYPE = U
NORAD_CAT_ID   = 66906
ELEMENT_SET_NO = 999
REV_AT_EPOCH   = 1430
BSTAR          = .60284E-3
MEAN_MOTION_DOT = .42212E-3
MEAN_MOTION_DDOT = 0

CCSDS_OMM_VERS = 2.0
CREATION_DATE  = 
ORIGINATOR     = 

OBJECT_NAME    = ISS OBJECT XT
OBJECT_ID      = 1998-067XT
CENTER_NAME    = EARTH
REF_FRAME      = TEME
TIME_SYSTEM    = UTC
MEAN_ELEMENT_THEORY = SGP/SGP4

EPOCH          = 2026-03-04T07:03:20.165760
MEAN_MOTION    = 15.67417551
ECCENTRICITY   = .000464
INCLINATION    = 51.6246
RA_OF_ASC_NODE = 93.1197
ARG_OF_PERICENTER = 42.9722
MEAN_ANOMALY   = 317.1636

EPHEMERIS_TYPE = 0
CLASSIFICATION_TYPE = U
NORAD_CAT_ID   = 66907
ELEMENT_SET_NO = 999
REV_AT_EPOCH   = 1433
BSTAR          = .16714E-2
MEAN_MOTION_DOT = .188353E-2
MEAN_MOTION_DDOT = 0

CCSDS_OMM_VERS = 2.0
CREATION_DATE  = 
ORIGINATOR     = 

OBJECT_NAME    = ISS OBJECT XU
OBJECT_ID      = 1998-067XU
CENTER_NAME    = EARTH
REF_FRAME      = TEME
TIME_SYSTEM    = UTC
MEAN_ELEMENT_THEORY = SGP/SGP4

EPOCH          = 2026-03-04T07:01:15.984768
MEAN_MOTION    = 15.67514512
ECCENTRICITY   = .0004676
INCLINATION    = 51.6245
RA_OF_ASC_NODE = 93.1068
ARG_OF_PERICENTER = 47.0078
MEAN_ANOMALY   = 313.1309

EPHEMERIS_TYPE = 0
CLASSIFICATION_TYPE = U
NORAD_CAT_ID   = 66908
ELEMENT_SET_NO = 999
REV_AT_EPOCH   = 1433
BSTAR          = .16845E-2
MEAN_MOTION_DOT = .190633E-2
MEAN_MOTION_DDOT = 0

CCSDS_OMM_VERS = 2.0
CREATION_DATE  = 
ORIGINATOR     = 

OBJECT_NAME    = SILVERSAT
OBJECT_ID      = 1998-067XV
CENTER_NAME    = EARTH
REF_FRAME      = TEME
TIME_SYSTEM    = UTC
MEAN_ELEMENT_THEORY = SGP/SGP4

EPOCH          = 2026-03-04T05:44:31.309728
MEAN_MOTION    = 15.69945816
ECCENTRICITY   = .000549
INCLINATION    = 51.6239
RA_OF_ASC_NODE = 92.7506
ARG_OF_PERICENTER = 43.4066
MEAN_ANOMALY   = 316.7363

EPHEMERIS_TYPE = 0
CLASSIFICATION_TYPE = U
NORAD_CAT_ID   = 66909
ELEMENT_SET_NO = 999
REV_AT_EPOCH   = 1433
BSTAR          = .18132E-2
MEAN_MOTION_DOT = .227913E-2
MEAN_MOTION_DDOT = 0

