YOTSUBA-KULOVER         
1 65941U 98067XN  26063.32712413  .00235069  00000+0  13143-2 0  9993
2 65941  51.6210  85.0577 0006069  34.8104 325.3292 15.78107560 22656
BOTAN                   
1 65942U 98067XP  26062.30429370  .04760636  12041-4  14503-2 0  9999
2 65942  51.6040  82.5602 0002926  46.9281 313.1984 16.26065139 22592
E-KAGAKU-1              
1 65943U 98067XQ  26063.33052554  .00228850  00000+0  12960-2 0  9995
2 65943  51.6236  85.0969 0006198  41.7639 318.3833 15.77837895 22657
HRC MONOBLOCK CAMERA    
1 66052U 98067XR  26063.32575469  .00068021  00000+0  77710-3 0  9998
2 66052  51.6270  92.5913 0003417  67.9159 292.2198 15.61539158 21553
HTV-X1                  
1 66174U 25241A   26063.41494957  .00010377  00000+0  19994-3 0  9990
2 66174  51.6315  98.4344 0008199 155.9283 204.2090 15.48440114555430
SZ-21 MODULE            
1 66515U 25246C   26062.76916662  .00044751  00000+0  39281-3 0  9997
2 66515  41.4730 239.7930 0001447 287.9355  72.1329 15.68011820 17141
SHENZHOU-22             
1 66645U 25272A   26063.53175524  .00024935  00000+0  29808-3 0  9996
2 66645  41.4656 239.5395 0006880 242.0703 117.9439 15.60393731268357
SOYUZ-MS 28             
1 66664U 25275A   26063.41494957  .00010377  00000+0  19994-3 0  9991
2 66664  51.6315  98.4344 0008199 155.9283 204.2090 15.48440114555513
DUPLEX                  
1 66906U 98067XS  26063.38398991  .00042212  00000+0  60284-3 0  9997
2 66906  51.6284  95.9816 0002075  91.8511 268.2718 15.55826494 14303
ISS OBJECT XT           
1 66907U 98067XT  26063.29398340  .00188353  00000+0  16714-2 0  9991
2 66907  51.6246  93.1197 0004640  42.9722 317.1636 15.67417551 14334
ISS OBJECT XU           
1 66908U 98067XU  26063.29254612  .00190633  00000+0  16845-2 0  9994
2 66908  51.6245  93.1068 0004676  47.0078 313.1309 15.67514512 14338
SILVERSAT               
1 66909U 98067XV  26063.23925127  .00227913  00000+0  18132-2 0  9998
2 66909  51.6239  92.7506 0005490  43.4066 316.7363 15.69945816 14332
